      2.10          N: GNSS NAV DATA                        RINEX VERSION / TYPE
fic2rin                                 06/16/2023 00:17:55 PGM / RUN BY / DATE
                                                            END OF HEADER
16 23  6 15 20  0  0.0 -.491123180836D-03  .386535248253D-11  .000000000000D+00
     .470000000000D+02  .110812500000D+03  .401445293236D-08  .479082808476D+00
     .589340925217D-05  .132937036688D-01  .987574458122D-05  .515362192535D+04
     .417600000000D+06 -.162050127983D-06 -.693783632587D-02  .217929482460D-06
     .965346454212D+00  .192875000000D+03  .789917563534D+00 -.791640117846D-08
    -.857178562071D-11  .100000000000D+01  .226600000000D+04  .000000000000D+00
     .240000000000D+01  .000000000000D+00 -.102445483208D-07  .470000000000D+02
     .410400000000D+06  .400000000000D+01
30 23  6 15 20  0  0.0 -.510809943080D-03  .250111042988D-11  .000000000000D+00
     .720000000000D+02 -.146250000000D+02  .505735351622D-08  .291250128427D+01
    -.862404704094D-06  .655594991986D-02  .791251659393D-05  .515358017731D+04
     .417600000000D+06 -.428408384323D-07 -.113388870923D+01 -.391155481339D-07
     .935124130554D+00  .212531250000D+03 -.257238839483D+01 -.811498087867D-08
    -.562880589093D-09  .100000000000D+01  .226600000000D+04  .000000000000D+00
     .240000000000D+01  .000000000000D+00  .372529029846D-08  .720000000000D+02
     .410400000000D+06  .400000000000D+01
27 23  6 15 20  0  0.0  .158343464136D-04 -.761701812735D-11  .000000000000D+00
     .630000000000D+02  .717500000000D+02  .466090843126D-08 -.412499672050D+00
     .399164855480D-05  .115485270508D-01  .179745256901D-05  .515366768837D+04
     .417600000000D+06  .204890966415D-07  .947984268881D+00  .169500708580D-06
     .967297221823D+00  .350156250000D+03  .742442792420D+00 -.854285584424D-08
     .285726187357D-09  .100000000000D+01  .226600000000D+04  .000000000000D+00
     .240000000000D+01  .000000000000D+00  .186264514923D-08  .630000000000D+02
     .410400000000D+06  .400000000000D+01
20 23  6 15 20  0  0.0  .427828636020D-03 -.204636307899D-11  .000000000000D+00
     .610000000000D+02 -.753750000000D+02  .464840791056D-08 -.180611940675D+01
    -.372901558876D-05  .403960212134D-02  .108554959297D-04  .515356835938D+04
     .417600000000D+06  .577419996262D-07  .287821687159D+01 -.558793544769D-07
     .949163865079D+00  .161875000000D+03 -.288125199358D+01 -.795711716015D-08
     .267868300647D-09  .100000000000D+01  .226600000000D+04  .000000000000D+00
     .240000000000D+01  .000000000000D+00 -.838190317154D-08  .610000000000D+02
     .410400000000D+06  .400000000000D+01
26 23  6 15 20  0  0.0  .238960143179D-03 -.795807864051D-12  .000000000000D+00
     .500000000000D+02  .957187500000D+02  .464412201775D-08  .139274366621D+01
     .501982867718D-05  .791812362149D-02  .108368694782D-04  .515371535683D+04
     .417600000000D+06 -.931322574615D-07 -.163653901093D+00  .447034835815D-07
     .934097715045D+00  .155031250000D+03  .464195674264D+00 -.809676583423D-08
    -.201794119821D-09  .100000000000D+01  .226600000000D+04  .000000000000D+00
     .240000000000D+01  .000000000000D+00  .698491930962D-08  .500000000000D+02
     .410400000000D+06  .400000000000D+01
17 23  6 15 20  0  0.0  .718457158655D-03  .125055521494D-11  .000000000000D+00
     .490000000000D+02  .528437500000D+02  .451090218290D-08 -.507101657128D+00
     .259093940258D-05  .135067423107D-01  .174716114998D-05  .515378096581D+04
     .417600000000D+06 -.162050127983D-06  .101383582631D+01  .186264514923D-07
     .973939575030D+00  .357593750000D+03 -.140606130437D+01 -.850714007082D-08
     .307155651409D-09  .100000000000D+01  .226600000000D+04  .000000000000D+00
     .340000000000D+01  .000000000000D+00 -.111758708954D-07  .490000000000D+02
     .410400000000D+06  .400000000000D+01
13 23  6 15 20  0  0.0  .534454360604D-03  .511590769747D-11  .000000000000D+00
     .650000000000D+02  .303125000000D+01  .471983945740D-08 -.813957494448D+00
     .707805156708D-07  .704128469806D-02  .545568764210D-05  .515365861511D+04
     .417600000000D+06  .260770320892D-07 -.205129857104D+01  .171363353729D-06
     .969566751970D+00  .277250000000D+03  .907293694047D+00 -.808605110220D-08
    -.382158775590D-10  .100000000000D+01  .226600000000D+04  .000000000000D+00
     .240000000000D+01  .000000000000D+00 -.111758708954D-07  .650000000000D+02
     .410400000000D+06  .400000000000D+01
19 23  6 15 20  0  0.0  .331035815179D-03  .511590769747D-11  .000000000000D+00
     .890000000000D+02  .474375000000D+02  .444268505567D-08  .167979729519D+01
     .234134495258D-05  .947532185819D-02  .679865479469D-06  .515362902451D+04
     .417600000000D+06  .154599547386D-06  .105837001505D+01  .428408384323D-07
     .972980384996D+00  .372125000000D+03  .232480403376D+01 -.818641242551D-08
     .123576576032D-09  .100000000000D+01  .226600000000D+04  .000000000000D+00
     .340000000000D+01  .000000000000D+00 -.153668224812D-07  .890000000000D+02
     .410400000000D+06  .400000000000D+01
11 23  6 15 20  0  0.0 -.236887484789D-03 -.151203494170D-10  .000000000000D+00
     .310000000000D+02 -.117906250000D+03  .456769026263D-08 -.997378173467D+00
    -.605545938015D-05  .899398000911D-03  .523403286934D-05  .515376073265D+04
     .417600000000D+06 -.298023223877D-07  .205005983638D+01  .596046447754D-07
     .965333816062D+00  .281218750000D+03 -.288555053991D+01 -.815248244076D-08
    -.151077721565D-09  .100000000000D+01  .226600000000D+04  .000000000000D+00
     .240000000000D+01  .000000000000D+00 -.884756445885D-08  .543000000000D+03
     .410400000000D+06  .400000000000D+01
28 23  6 15 20  0  0.0  .832825899124D-04  .795807864051D-12  .000000000000D+00
     .730000000000D+02 -.117812500000D+02  .461090634847D-08  .148191517357D+01
    -.691041350365D-06  .659399549477D-03  .793486833572D-05  .515368808746D+04
     .417600000000D+06  .540167093277D-07 -.117683819050D+01 -.502914190292D-07
     .961119792760D+00  .227968750000D+03  .170091539542D+01 -.796390315710D-08
    -.590381734626D-09  .100000000000D+01  .226600000000D+04  .000000000000D+00
     .340000000000D+01  .000000000000D+00 -.977888703346D-08  .841000000000D+03
     .410400000000D+06  .400000000000D+01
14 23  6 15 20  0  0.0  .917040742934D-04  .123918653117D-10  .000000000000D+00
     .188000000000D+03  .101687500000D+03  .435661004172D-08  .225591698715D+01
     .534206628799D-05  .327468884643D-02  .940449535847D-05  .515368871117D+04
     .417600000000D+06 -.614672899246D-07 -.641050614560D-01  .223517417908D-07
     .948996077153D+00  .188937500000D+03 -.300205393299D+01 -.792283001767D-08
    -.160720980388D-10  .100000000000D+01  .226600000000D+04  .000000000000D+00
     .240000000000D+01  .000000000000D+00 -.791624188423D-08  .700000000000D+03
     .410400000000D+06  .400000000000D+01
22 23  6 15 20  0  0.0  .498377252370D-03  .591171556152D-11  .000000000000D+00
     .490000000000D+02  .965625000000D+01  .495342061557D-08 -.616684191052D+00
     .590458512306D-06  .143800397636D-01  .588782131672D-05  .515363116074D+04
     .417600000000D+06 -.119209289551D-06 -.210652813338D+01  .139698386192D-06
     .962480815669D+00  .269031250000D+03 -.180003939194D+01 -.836249118847D-08
     .152506352502D-09  .100000000000D+01  .226600000000D+04  .000000000000D+00
     .240000000000D+01  .630000000000D+02 -.838190317154D-08  .490000000000D+02
     .410400000000D+06  .400000000000D+01
19 23  6 15 19 59 44.0  .331034883857D-03  .511590769747D-11  .000000000000D+00
     .100000000000D+01  .474375000000D+02  .444268505567D-08  .167746341713D+01
     .234134495258D-05  .947532174177D-02  .679865479469D-06  .515362902260D+04
     .417584000000D+06  .154599547386D-06  .105837014525D+01  .428408384323D-07
     .972980396699D+00  .372125000000D+03  .232480408935D+01 -.818641242551D-08
     .123576576032D-09  .100000000000D+01  .226600000000D+04  .000000000000D+00
     .240000000000D+01  .000000000000D+00 -.153668224812D-07  .100000000000D+01
     .414570000000D+06  .400000000000D+01
3  23  6 15 19 59 28.0 -.269202981144D-03  .136424205266D-10  .000000000000D+00
     .100000000000D+01 -.575312500000D+02  .383980280034D-08  .248114175280D+01
    -.316835939884D-05  .494031154085D-02  .106766819954D-04  .515365937233D+04
     .417568000000D+06 -.316649675369D-07  .304772521285D+01 -.109896063805D-06
     .979670590252D+00  .181593750000D+03  .103977899024D+01 -.746173938282D-08
     .257153568621D-09  .100000000000D+01  .226600000000D+04  .000000000000D+00
     .240000000000D+01  .000000000000D+00  .186264514923D-08  .100000000000D+01
     .414780000000D+06  .400000000000D+01
28 23  6 15 21 14 40.0  .832867808640D-04  .795807864051D-12  .000000000000D+00
     .740000000000D+02 -.906250000000D+01  .458590530708D-08  .213465279197D+01
    -.486150383949D-06  .659270444885D-03  .773184001446D-05  .515368897629D+04
     .422080000000D+06  .838190317154D-07 -.117687361653D+01  .223517417908D-07
     .961117340909D+00  .230531250000D+03  .170161838168D+01 -.790747223510D-08
    -.609668252273D-09  .100000000000D+01  .226600000000D+04  .000000000000D+00
     .240000000000D+01  .000000000000D+00 -.977888703346D-08  .842000000000D+03
     .414900000000D+06  .400000000000D+01
3  23  6 15 21 59 28.0 -.269105192274D-03  .136424205266D-10  .000000000000D+00
     .110000000000D+02 -.718750000000D+02  .399516641472D-08 -.275176765293D+01
    -.367313623428D-05  .494221225381D-02  .106748193502D-04  .515365574455D+04
     .424768000000D+06  .180676579475D-06  .304767068696D+01 -.949949026108D-07
     .979672540322D+00  .182312500000D+03  .103969007846D+01 -.753567103380D-08
     .371086885830D-09  .100000000000D+01  .226600000000D+04  .000000000000D+00
     .240000000000D+01  .000000000000D+00  .186264514923D-08  .110000000000D+02
     .417600000000D+06  .400000000000D+01
